CCSDS_OMM_VERS = 2.0
CREATION_DATE  = 
ORIGINATOR     = 

OBJECT_NAME    = FLOCK 4H-9
OBJECT_ID      = 2025-276AY
CENTER_NAME    = EARTH
REF_FRAME      = TEME
TIME_SYSTEM    = UTC
MEAN_ELEMENT_THEORY = SGP/SGP4

EPOCH          = 2025-12-24T06:30:02.516544
MEAN_MOTION    = 15.17937949
ECCENTRICITY   = .00027173
INCLINATION    = 97.4421
RA_OF_ASC_NODE = 69.8608
ARG_OF_PERICENTER = 209.4343
MEAN_ANOMALY   = 150.6738

EPHEMERIS_TYPE = 0
CLASSIFICATION_TYPE = U
NORAD_CAT_ID   = 66712
ELEMENT_SET_NO = 999
REV_AT_EPOCH   = 387
BSTAR          = .64316487E-3
MEAN_MOTION_DOT = .13001E-3
MEAN_MOTION_DDOT = 0

CCSDS_OMM_VERS = 2.0
CREATION_DATE  = 
ORIGINATOR     = 

OBJECT_NAME    = FLOCK 4H-10
OBJECT_ID      = 2025-276AZ
CENTER_NAME    = EARTH
REF_FRAME      = TEME
TIME_SYSTEM    = UTC
MEAN_ELEMENT_THEORY = SGP/SGP4

EPOCH          = 2025-12-24T03:36:14.292288
MEAN_MOTION    = 15.17294576
ECCENTRICITY   = .00034586
INCLINATION    = 97.4392
RA_OF_ASC_NODE = 69.7034
ARG_OF_PERICENTER = 245.3697
MEAN_ANOMALY   = 114.7177

EPHEMERIS_TYPE = 0
CLASSIFICATION_TYPE = U
NORAD_CAT_ID   = 66713
ELEMENT_SET_NO = 999
REV_AT_EPOCH   = 385
BSTAR          = .60932999E-3
MEAN_MOTION_DOT = .12087E-3
MEAN_MOTION_DDOT = 0

CCSDS_OMM_VERS = 2.0
CREATION_DATE  = 
ORIGINATOR     = 

OBJECT_NAME    = FLOCK 4H-11
OBJECT_ID      = 2025-276BA
CENTER_NAME    = EARTH
REF_FRAME      = TEME
TIME_SYSTEM    = UTC
MEAN_ELEMENT_THEORY = SGP/SGP4

EPOCH          = 2025-12-24T05:02:59.541504
MEAN_MOTION    = 15.17823275
ECCENTRICITY   = .00020548
INCLINATION    = 97.4414
RA_OF_ASC_NODE = 69.7869
ARG_OF_PERICENTER = 269.2812
MEAN_ANOMALY   = 90.8186

EPHEMERIS_TYPE = 0
CLASSIFICATION_TYPE = U
NORAD_CAT_ID   = 66714
ELEMENT_SET_NO = 999
REV_AT_EPOCH   = 386
BSTAR          = .67840468E-3
MEAN_MOTION_DOT = .13672E-3
MEAN_MOTION_DDOT = 0

CCSDS_OMM_VERS = 2.0
CREATION_DATE  = 
ORIGINATOR     = 

OBJECT_NAME    = FLOCK 4H-12
OBJECT_ID      = 2025-276BB
CENTER_NAME    = EARTH
REF_FRAME      = TEME
TIME_SYSTEM    = UTC
MEAN_ELEMENT_THEORY = SGP/SGP4

EPOCH          = 2025-12-24T06:26:47.923008
MEAN_MOTION    = 15.18009787
ECCENTRICITY   = .00040885
INCLINATION    = 97.4412
RA_OF_ASC_NODE = 69.8621
ARG_OF_PERICENTER = 179.4633
MEAN_ANOMALY   = 180.6606

EPHEMERIS_TYPE = 0
CLASSIFICATION_TYPE = U
NORAD_CAT_ID   = 66715
ELEMENT_SET_NO = 999
REV_AT_EPOCH   = 418
BSTAR          = -.64286509E-3
MEAN_MOTION_DOT = -.1311E-3
MEAN_MOTION_DDOT = 0

CCSDS_OMM_VERS = 2.0
CREATION_DATE  = 
ORIGINATOR     = 

OBJECT_NAME    = FLOCK 4H-13
OBJECT_ID      = 2025-276BC
CENTER_NAME    = EARTH
REF_FRAME      = TEME
TIME_SYSTEM    = UTC
MEAN_ELEMENT_THEORY = SGP/SGP4

EPOCH          = 2025-12-24T06:23:52.113696
MEAN_MOTION    = 15.17644812
ECCENTRICITY   = .00048
INCLINATION    = 97.4410
RA_OF_ASC_NODE = 69.8612
ARG_OF_PERICENTER = 114.7474
MEAN_ANOMALY   = 245.4260

EPHEMERIS_TYPE = 0
CLASSIFICATION_TYPE = U
NORAD_CAT_ID   = 66716
ELEMENT_SET_NO = 999
REV_AT_EPOCH   = 387
BSTAR          = -.15896596E-1
MEAN_MOTION_DOT = -.306849E-2
MEAN_MOTION_DDOT = 0

CCSDS_OMM_VERS = 2.0
CREATION_DATE  = 
ORIGINATOR     = 

OBJECT_NAME    = FLOCK 4H-14
OBJECT_ID      = 2025-276BD
CENTER_NAME    = EARTH
REF_FRAME      = TEME
TIME_SYSTEM    = UTC
MEAN_ELEMENT_THEORY = SGP/SGP4

EPOCH          = 2025-12-24T06:20:36.923136
MEAN_MOTION    = 15.18362665
ECCENTRICITY   = .00016981
INCLINATION    = 97.4413
RA_OF_ASC_NODE = 69.8620
ARG_OF_PERICENTER = 131.3272
MEAN_ANOMALY   = 228.8108

EPHEMERIS_TYPE = 0
CLASSIFICATION_TYPE = U
NORAD_CAT_ID   = 66717
ELEMENT_SET_NO = 999
REV_AT_EPOCH   = 312
BSTAR          = .34791126E-3
MEAN_MOTION_DOT = .7082E-4
MEAN_MOTION_DDOT = 0

CCSDS_OMM_VERS = 2.0
CREATION_DATE  = 
ORIGINATOR     = 

OBJECT_NAME    = FLOCK 4H-15
OBJECT_ID      = 2025-276BE
CENTER_NAME    = EARTH
REF_FRAME      = TEME
TIME_SYSTEM    = UTC
MEAN_ELEMENT_THEORY = SGP/SGP4

EPOCH          = 2025-12-24T05:14:02.423040
MEAN_MOTION    = 15.17122506
ECCENTRICITY   = .00031189
INCLINATION    = 97.4418
RA_OF_ASC_NODE = 69.7744
ARG_OF_PERICENTER = 262.0111
MEAN_ANOMALY   = 98.0769

EPHEMERIS_TYPE = 0
CLASSIFICATION_TYPE = U
NORAD_CAT_ID   = 66718
ELEMENT_SET_NO = 999
REV_AT_EPOCH   = 386
BSTAR          = .61933067E-3
MEAN_MOTION_DOT = .12226E-3
MEAN_MOTION_DDOT = 0

CCSDS_OMM_VERS = 2.0
CREATION_DATE  = 
ORIGINATOR     = 

OBJECT_NAME    = FLOCK 4H-16
OBJECT_ID      = 2025-276BF
CENTER_NAME    = EARTH
REF_FRAME      = TEME
TIME_SYSTEM    = UTC
MEAN_ELEMENT_THEORY = SGP/SGP4

EPOCH          = 2025-12-24T03:36:32.783616
MEAN_MOTION    = 15.17223362
ECCENTRICITY   = .00071256
INCLINATION    = 97.4433
RA_OF_ASC_NODE = 69.7176
ARG_OF_PERICENTER = 194.9870
MEAN_ANOMALY   = 165.1154

EPHEMERIS_TYPE = 0
CLASSIFICATION_TYPE = U
NORAD_CAT_ID   = 66719
ELEMENT_SET_NO = 999
REV_AT_EPOCH   = 385
BSTAR          = -.10371176E-1
MEAN_MOTION_DOT = -.200754E-2
MEAN_MOTION_DDOT = 0

CCSDS_OMM_VERS = 2.0
CREATION_DATE  = 
ORIGINATOR     = 

OBJECT_NAME    = FLOCK 4H-17
OBJECT_ID      = 2025-276BG
CENTER_NAME    = EARTH
REF_FRAME      = TEME
TIME_SYSTEM    = UTC
MEAN_ELEMENT_THEORY = SGP/SGP4

EPOCH          = 2025-12-24T08:00:03.000384
MEAN_MOTION    = 15.18107936
ECCENTRICITY   = .00027451
INCLINATION    = 97.4437
RA_OF_ASC_NODE = 69.9326
ARG_OF_PERICENTER = 183.4874
MEAN_ANOMALY   = 170.4379

EPHEMERIS_TYPE = 0
CLASSIFICATION_TYPE = U
NORAD_CAT_ID   = 66720
ELEMENT_SET_NO = 999
REV_AT_EPOCH   = 130
BSTAR          = -.23881973E-2
MEAN_MOTION_DOT = -.48418E-3
MEAN_MOTION_DDOT = 0

CCSDS_OMM_VERS = 2.0
CREATION_DATE  = 
ORIGINATOR     = 

OBJECT_NAME    = FLOCK 4H-18
OBJECT_ID      = 2025-276BH
CENTER_NAME    = EARTH
REF_FRAME      = TEME
TIME_SYSTEM    = UTC
MEAN_ELEMENT_THEORY = SGP/SGP4

EPOCH          = 2025-12-24T05:13:12.888192
MEAN_MOTION    = 15.17156642
ECCENTRICITY   = .00025171
INCLINATION    = 97.4378
RA_OF_ASC_NODE = 69.7599
ARG_OF_PERICENTER = 276.7178
MEAN_ANOMALY   = 83.3769

EPHEMERIS_TYPE = 0
CLASSIFICATION_TYPE = U
NORAD_CAT_ID   = 66721
ELEMENT_SET_NO = 999
REV_AT_EPOCH   = 386
BSTAR          = .54677245E-3
MEAN_MOTION_DOT = .10794E-3
MEAN_MOTION_DDOT = 0

CCSDS_OMM_VERS = 2.0
CREATION_DATE  = 
ORIGINATOR     = 

OBJECT_NAME    = FLOCK 4H-19
OBJECT_ID      = 2025-276BJ
CENTER_NAME    = EARTH
REF_FRAME      = TEME
TIME_SYSTEM    = UTC
MEAN_ELEMENT_THEORY = SGP/SGP4

EPOCH          = 2025-12-24T06:22:27.546240
MEAN_MOTION    = 15.18266204
ECCENTRICITY   = .00025134
INCLINATION    = 97.4386
RA_OF_ASC_NODE = 69.8501
ARG_OF_PERICENTER = 149.9011
MEAN_ANOMALY   = 210.2368

EPHEMERIS_TYPE = 0
CLASSIFICATION_TYPE = U
NORAD_CAT_ID   = 66722
ELEMENT_SET_NO = 999
REV_AT_EPOCH   = 316
BSTAR          = .75142681E-3
MEAN_MOTION_DOT = .15349E-3
MEAN_MOTION_DDOT = 0

CCSDS_OMM_VERS = 2.0
CREATION_DATE  = 
ORIGINATOR     = 

OBJECT_NAME    = FLOCK 4H-20
OBJECT_ID      = 2025-276BK
CENTER_NAME    = EARTH
REF_FRAME      = TEME
TIME_SYSTEM    = UTC
MEAN_ELEMENT_THEORY = SGP/SGP4

EPOCH          = 2025-12-24T06:21:28.597248
MEAN_MOTION    = 15.18324329
ECCENTRICITY   = .00029816
INCLINATION    = 97.4421
RA_OF_ASC_NODE = 69.8652
ARG_OF_PERICENTER = 165.2162
MEAN_ANOMALY   = 194.9160

EPHEMERIS_TYPE = 0
CLASSIFICATION_TYPE = U
NORAD_CAT_ID   = 66723
ELEMENT_SET_NO = 999
REV_AT_EPOCH   = 312
BSTAR          = .5772457E-3
MEAN_MOTION_DOT = .1179E-3
MEAN_MOTION_DDOT = 0

