FLOCK 4H-9              
1 66712U 25276AY  25358.27086246  .00013001  00000+0  64316-3 0  9999
2 66712  97.4421  69.8608 0002717 209.4343 150.6738 15.17937949  3873
FLOCK 4H-10             
1 66713U 25276AZ  25358.15016542  .00012087  00000+0  60933-3 0  9993
2 66713  97.4392  69.7034 0003458 245.3697 114.7177 15.17294576  3855
FLOCK 4H-11             
1 66714U 25276BA  25358.21041136  .00013672  00000+0  67840-3 0  9993
2 66714  97.4414  69.7869 0002054 269.2812  90.8186 15.17823275  3861
FLOCK 4H-12             
1 66715U 25276BB  25358.26861022 -.00013110  00000+0 -64287-3 0  9994
2 66715  97.4412  69.8621 0004088 179.4633 180.6606 15.18009787  4185
FLOCK 4H-13             
1 66716U 25276BC  25358.26657539 -.00306849  00000+0 -15897-1 0  9996
2 66716  97.4410  69.8612 0004800 114.7474 245.4260 15.17644812  3875
FLOCK 4H-14             
1 66717U 25276BD  25358.26431624  .00007082  00000+0  34791-3 0  9993
2 66717  97.4413  69.8620 0001698 131.3272 228.8108 15.18362665  3129
FLOCK 4H-15             
1 66718U 25276BE  25358.21808360  .00012226  00000+0  61933-3 0  9998
2 66718  97.4418  69.7744 0003118 262.0111  98.0769 15.17122506  3862
FLOCK 4H-16             
1 66719U 25276BF  25358.15037944 -.00200754  00000+0 -10371-1 0  9999
2 66719  97.4433  69.7176 0007125 194.9870 165.1154 15.17223362  3851
FLOCK 4H-17             
1 66720U 25276BG  25358.33336806 -.00048418  00000+0 -23882-2 0  9999
2 66720  97.4437  69.9326 0002745 183.4874 170.4379 15.18107936  1301
FLOCK 4H-18             
1 66721U 25276BH  25358.21751028  .00010794  00000+0  54677-3 0  9995
2 66721  97.4378  69.7599 0002517 276.7178  83.3769 15.17156642  3861
FLOCK 4H-19             
1 66722U 25276BJ  25358.26559660  .00015349  00000+0  75143-3 0  9991
2 66722  97.4386  69.8501 0002513 149.9011 210.2368 15.18266204  3164
FLOCK 4H-20             
1 66723U 25276BK  25358.26491432  .00011790  00000+0  57725-3 0  9996
2 66723  97.4421  69.8652 0002981 165.2162 194.9160 15.18324329  3126
